STARLINK-2655           
1 48449U 21040X   26068.56559856 -.00000433  00000+0 -24980-5 0  9996
2 48449  53.1635 178.7122 0001428  91.6237 268.4927 15.30196580266667
TEVEL2-2                
1 63219U 25052K   26068.64848259  .00020339  00000+0  69428-3 0  9991
2 63219  97.3987 324.7700 0004693 105.7930 254.3828 15.30343745 54855
